IRIDIUM 36              
1 24967U 97056C   24356.15192711  .00000721  00000+0  23535-3 0  9992
2 24967  86.3969 247.7407 0001902  85.3852 274.7563 14.37301626426644
IRIDIUM 39              
1 25042U 97069D   24356.23843310  .00001358  00000+0  35429-3 0  9990
2 25042  86.3909 287.4325 0017842 173.7334 186.4097 14.48736540423197
IRIDIUM 38              
1 25043U 97069E   24356.37632398  .00001021  00000+0  33272-3 0  9999
2 25043  86.3954 307.9869 0002009  33.9035 326.2291 14.37792655420669
IRIDIUM 42              
1 25077U 97077A   24355.95652030  .00000942  00000+0  31726-3 0  9996
2 25077  86.3959 314.1148 0002199  68.0160 292.1271 14.36051788415611
IRIDIUM 44              
1 25078U 97077B   24356.39084653  .00000947  00000+0  29526-3 0  9996
2 25078  86.3952 296.3213 0000592 124.3528 235.7727 14.39921819418119
IRIDIUM 45              
1 25104U 97082A   24356.47889734  .00023685  00000+0  10639-2 0  9992
2 25104  86.3629 133.6018 0135520 273.4572  85.1175 15.13065259425089
IRIDIUM 24              
1 25105U 97082B   24356.38294023  .00001026  00000+0  30849-3 0  9995
2 25105  86.3926 155.6741 0009872 312.5687  47.4679 14.41744840417844
IRIDIUM 51              
1 25262U 98018A   24356.48076205  .00044349  00000+0  14858-2 0  9996
2 25262  86.3915 142.7824 0114717 205.9504 153.5964 15.24548555419815
